ORBCOMM FM15 [-]        
1 25418U 98046F   24076.39624179  .00001518  00000+0  57022-3 0  9990
2 25418  44.9969 185.5325 0004265 179.1501 180.9354 14.35607056338396
ORBCOMM FM14 [-]        
1 25419U 98046G   24076.45055317  .00001747  00000+0  64717-3 0  9993
2 25419  44.9950 184.4609 0002968 178.9339 303.3059 14.35755279338354
ORBCOMM FM13 [+]        
1 25420U 98046H   24076.44606510  .00001427  00000+0  54459-3 0  9998
2 25420  44.9971 189.0558 0004881 157.5146 202.5916 14.35088641337429
ORBCOMM FM21 [-]        
1 25475U 98053A   24076.53404946  .00001037  00000+0  40951-3 0  9994
2 25475  45.0077 272.8904 0000975 112.5209 247.5741 14.35050085331784
ORBCOMM FM22 [-]        
1 25476U 98053B   24075.97419399  .00001233  00000+0  47319-3 0  9993
2 25476  45.0073 273.0344 0002533  92.0622 268.0515 14.35524456331364
ORBCOMM FM23 [-]        
1 25477U 98053C   24076.56370201  .00001188  00000+0  46185-3 0  9997
2 25477  45.0080 275.1926 0001876  93.5584 266.5478 14.35080144331603
